0 SL-12 R/B(2)
1 14194U 81027F   13286.03145675 -.00000154  00000-0  10000-3 0  3739
2 14194 015.8649 345.2648 0020798 097.4228 262.8187 00.97663383 74981
0 SL-12 R/B(2)
1 14194U 81027F   13288.07922945 -.00000120  00000-0  10000-3 0  3742
2 14194 015.8643 345.2427 0020681 097.0133 263.2241 00.97662676 75006
0 SL-12 R/B(2)
1 14194U 81027F   13293.19872155 -.00000072  00000-0  10000-3 0  3755
2 14194 015.8626 345.1901 0020738 097.5511 262.6751 00.97661914 75059
0 SL-12 R/B(2)
1 14194U 81027F   13295.24653003 -.00000088  00000-0  10000-3 0  3760
2 14194 015.8619 345.1691 0020745 097.6020 262.6253 00.97662353 75078
